AMC-1 (GE-1)            
1 24315U 96054A   23311.40600670 -.00000188  00000+0  00000+0 0  9998
2 24315   6.8281  68.6304 0009806 186.7626 103.5143  0.99512371 36753
AMC-3 (GE-3)            
1 24936U 97050A   23312.49725260 -.00000245  00000+0  00000+0 0  9991
2 24936   5.7953  74.4682 0003320 176.7231 263.2610  1.00271713 95906
ASTRA 1G                
1 25071U 97076A   23311.68799448  .00000011  00000+0  00000+0 0  9999
2 25071   7.2894  63.2951 0009934 134.9826 183.0058  0.99035246 94962
ASTRA 2A                
1 25462U 98050A   23312.41177958  .00000083  00000+0  00000+0 0  9993
2 25462   4.6819  79.9610 0003213 153.7934  19.0620  1.00273689 92197
NSS-11 (AAP-1)          
1 26554U 00059A   23312.52165351  .00000038  00000+0  00000+0 0  9994
2 26554   0.0173 340.9504 0002678 260.5849 169.7457  1.00272543 84631
AMC-6 (GE-6)            
1 26580U 00067A   23312.45308071  .00000117  00000+0  00000+0 0  9990
2 26580   0.0237 299.1001 0003090 304.1400 188.2830  1.00273798 84448
ASTRA 2C                
1 26853U 01025A   23312.49725220 -.00000244  00000+0  00000+0 0  9993
2 26853   5.8175  74.2859 0002827 162.7620 276.9375  1.00272682 82030
NSS-7                   
1 27414U 02019A   23312.18938468 -.00000144  00000+0  00000+0 0  9996
2 27414   7.0929  66.8786 0002605 170.4880 217.9550  1.00271393 79011
NSS-6                   
1 27603U 02057A   23312.48396307 -.00000011  00000+0  00000+0 0  9994
2 27603   2.9051  85.9202 0005435 181.7718 152.9675  0.99126715 76483
AMC-11 (GE-11)          
1 28252U 04017A   23311.59026862 -.00000040  00000+0  00000+0 0  9992
2 28252   0.0523  76.7092 0002500 161.9317 269.3065  1.00273622 71155
AMC-15                  
1 28446U 04041A   23312.48229091 -.00000076  00000+0  00000+0 0  9991
2 28446   0.0302 303.1911 0002384 284.2439 248.5764  1.00272117 69808
NSS-10 (AMC-12)         
1 28526U 05003A   23311.67676920 -.00000238  00000+0  00000+0 0  9996
2 28526   4.0534  81.7153 0002939 139.6928  31.4178  1.00273302 68766
ASTRA 1KR               
1 29055U 06012A   23311.61637544  .00000129  00000+0  00000+0 0  9996
2 29055   0.0149 289.8992 0005192 299.7597  58.0101  1.00270321 64190
AMC-18                  
1 29644U 06054B   23310.60000000 -.00000007  00000+0  00000+0 0  9991
2 29644   0.0490  86.7940 0046552  41.0950  42.2920  0.98181894 61953
ASTRA 1L                
1 31306U 07016A   23311.61637544  .00000129  00000+0  00000+0 0  9993
2 31306   0.0468 335.3315 0004999 279.3933  32.9278  1.00271056 60484
ASTRA 4A (SIRIUS 4)     
1 32299U 07057A   23311.35327272  .00000041  00000+0  00000+0 0  9998
2 32299   0.0203   1.4843 0002884 236.7753 300.0381  1.00271843 42116
AMC-21                  
1 33275U 08038B   23312.46398493  .00000049  00000+0  00000+0 0  9997
2 33275   0.4805  93.2469 0003098 141.3498 214.9497  1.00271630 55929
ASTRA 1M                
1 33436U 08057A   23311.61637544  .00000130  00000+0  00000+0 0  9997
2 33436   0.0554  85.6914 0004014 104.9143  97.0898  1.00274161 54922
CIEL-2                  
1 33453U 08063A   23311.50301312  .00000068  00000+0  00000+0 0  9992
2 33453   0.2964  93.6900 0002915 139.0454 225.9724  1.00272011 54588
NSS-9                   
1 33749U 09008A   23312.46860646  .00000084  00000+0  00000+0 0  9994
2 33749   0.0174  41.1694 0002105 183.1475 174.8290  1.00270937 54023
SES-7 (PROTOSTAR 2)     
1 34941U 09027A   23312.42196124 -.00000333  00000+0  00000+0 0  9997
2 34941   0.0702  81.7505 0002312 154.5145  71.2827  1.00272147 53066
NSS-12                  
1 36032U 09058A   23311.69771521  .00000081  00000+0  00000+0 0  9991
2 36032   0.0515  80.6715 0002994 160.3494 113.8247  1.00273784 51368
SES-1                   
1 36516U 10016A   23312.26494472 -.00000103  00000+0  00000+0 0  9991
2 36516   0.0545  79.4322 0002832 156.7433 165.4344  1.00272636 49599
ASTRA 3B                
1 36581U 10021A   23312.31507876  .00000149  00000+0  00000+0 0  9997
2 36581   0.0511   1.3297 0002912 207.2718 335.5941  1.00270530 49107
SES-3                   
1 37748U 11035A   23312.50304647 -.00000089  00000+0  00000+0 0  9995
2 37748   0.0186  31.2251 0002805 213.7791 240.5172  1.00269978 45153
ASTRA 1N                
1 37775U 11041A   23311.61637544  .00000130  00000+0  00000+0 0  9994
2 37775   0.0752  51.5665 0000466 212.0650  24.0664  1.00271753 44843
SES-2                   
1 37809U 11049A   23311.53574191 -.00000186  00000+0  00000+0 0  9991
2 37809   0.0163 337.6668 0002602 252.5863 282.1209  1.00271618 44412
QUETZSAT 1              
1 37826U 11054A   23311.52561075 -.00000233  00000+0  00000+0 0  9995
2 37826   0.0466  80.3424 0002651 169.4277 268.9402  1.00273416 44547
SES-4                   
1 38087U 12007A   23312.39602847 -.00000156  00000+0  00000+0 0  9997
2 38087   0.0199  11.0403 0002486 223.0779 293.7952  1.00270450 42941
SES-5                   
1 38652U 12036A   23311.61350369  .00000044  00000+0  00000+0 0  9995
2 38652   0.0451 301.0027 0002103 290.1662  41.2555  1.00272536 41510
ASTRA 2F                
1 38778U 12051A   23312.30952465  .00000162  00000+0  00000+0 0  9994
2 38778   0.0473 245.6424 0004505 342.6173 318.6272  1.00271625 40744
SES-6                   
1 39172U 13026A   23312.46395486 -.00000248  00000+0  00000+0 0  9993
2 39172   0.0235 327.1868 0002406 264.9074 301.8497  1.00272734 38170
O3B FM5                 
1 39188U 13031A   23311.99881331 -.00000020  00000+0  00000+0 0  9990
2 39188   0.0341   3.4516 0003004 221.4090 135.1213  5.00115770189496
O3B FM4                 
1 39189U 13031B   23311.45475950 -.00000022  00000+0  00000+0 0  9990
2 39189   0.0612  11.2287 0002976 214.3926 134.3602  5.00116178189380
O3B FM2                 
1 39190U 13031C   23311.54677760 -.00000021  00000+0  00000+0 0  9994
2 39190   0.0659  12.8606 0002806 211.5524 135.5704  5.00115379189445
O3B PFM                 
1 39191U 13031D   23310.37320119 -.00000024  00000+0  00000+0 0  9991
2 39191   0.0431   4.9310 0002586 220.4001 134.6531  5.00116045188956
ASTRA 2E                
1 39285U 13056A   23312.30396758  .00000162  00000+0  00000+0 0  9991
2 39285   0.0702 326.5642 0001894 251.0965 327.4906  1.00271229 37045
SES-8                   
1 39460U 13071A   23312.49093189 -.00000257  00000+0  00000+0 0  9991
2 39460   0.0202 263.6765 0000996 279.9957 135.5011  1.00272723 36330
ASTRA 5B                
1 39617U 14011B   23311.61724566  .00000147  00000+0  00000+0 0  9990
2 39617   0.0583 312.2948 0004001 292.6217  47.3712  1.00271671 35318
O3B FM3                 
1 40079U 14038A   23310.62742426 -.00000024  00000+0  00000+0 0  9993
2 40079   0.0535  10.4415 0000801 279.3118  70.2435  5.00116724165335
O3B FM7                 
1 40080U 14038B   23311.37367023 -.00000022  00000+0  00000+0 0  9992
2 40080   0.0558  14.3906 0004304 199.7913 145.7961  5.00115969170215
O3B FM6                 
1 40081U 14038C   23312.39984023 -.00000019  00000+0  00000+0 0  9997
2 40081   0.0544   9.7406 0002644 216.4051 133.8388  5.00115238170545
O3B FM8                 
1 40082U 14038D   23311.45391675 -.00000022  00000+0  00000+0 0  9993
2 40082   0.0548  10.8236 0002676 219.4372 129.7214  5.00115321170273
O3B FM10                
1 40348U 14083A   23310.68083964 -.00000023  00000+0  00000+0 0  9992
2 40348   0.0480   2.6703 0002643 222.9344 134.3791  5.00115408162193
O3B FM11                
1 40349U 14083B   23311.29379265 -.00000022  00000+0  00000+0 0  9992
2 40349   0.0455   7.6731 0003054 206.6691 145.6438  5.00115590162244
O3B FM12                
1 40350U 14083C   23310.72140749 -.00000023  00000+0  00000+0 0  9995
2 40350   0.0465   7.4331 0002609 214.3221 138.2304  5.00115528162220
O3B FM9                 
1 40351U 14083D   23310.54802463 -.00000024  00000+0  00000+0 0  9995
2 40351   0.0447   8.8122 0002709 215.5831 135.5884  5.00115079162364
ASTRA 2G                
1 40364U 14089A   23312.30952465  .00000162  00000+0  00000+0 0  9991
2 40364   0.0481  20.5179 0000955  74.6317  91.7499  1.00273184 32474
SES-9                   
1 41380U 16013A   23311.28105087 -.00000337  00000+0  00000+0 0  9990
2 41380   0.0114 300.9934 0000868 222.5564  92.1672  1.00271644 28192
SES-10                  
1 42432U 17017A   23312.38706514 -.00000260  00000+0  00000+0 0  9993
2 42432   0.0433  69.5482 0002813 163.4058 246.8357  1.00269823 24183
SES-15                  
1 42709U 17026A   23312.53573870  .00000073  00000+0  00000+0 0  9995
2 42709   0.0445  64.3553 0000273 172.7387 234.1046  1.00266781 24647
SES-11 (ECHOSTAR 105)   
1 42967U 17063A   23311.59166098 -.00000080  00000+0  00000+0 0  9996
2 42967   0.0129 300.2663 0003016 318.1593 256.1856  1.00272533 22259
SES-14                  
1 43175U 18012B   23312.39098116 -.00000266  00000+0  00000+0 0  9993
2 43175   0.0158 308.5979 0000988 283.2550 268.7524  1.00270655 21505
O3B FM15                
1 43231U 18024A   23311.21382012 -.00000022  00000+0  00000+0 0  9990
2 43231   0.0495 359.0514 0002670 224.4051 136.5281  5.00114646103538
O3B FM16                
1 43232U 18024B   23311.46667487 -.00000022  00000+0  00000+0 0  9990
2 43232   0.0508 354.4704 0002713 228.7305 136.7836  5.00116314103522
O3B FM14                
1 43233U 18024C   23309.90764474 -.00000025  00000+0  00000+0 0  9994
2 43233   0.0521 353.3205 0002895 227.6624 139.0005  5.00115818103213
O3B FM13                
1 43234U 18024D   23311.36057829 -.00000022  00000+0  00000+0 0  9994
2 43234   0.0468  18.3244 0002256 193.6386 148.0290  5.00115725103395
SES-12                  
1 43488U 18049A   23310.36993980 -.00000264  00000+0  00000+0 0  9996
2 43488   0.0379  70.3529 0002537 188.4887  14.6890  1.00272095 19852
O3B FM20                
1 44112U 19020A   23309.93432601 -.00000025  00000+0  00000+0 0  9995
2 44112   0.0487   2.9152 0002721 211.4508 145.6216  5.00115796 83836
O3B FM19                
1 44113U 19020B   23311.36056618 -.00000022  00000+0  00000+0 0  9993
2 44113   0.0327   8.4506 0004183 212.9893 138.5341  5.00115763 83767
O3B FM17                
1 44114U 19020C   23312.24024430 -.00000020  00000+0  00000+0 0  9997
2 44114   0.0676 358.1140 0002627 225.5176 136.3540  5.00116105 84027
O3B FM18                
1 44115U 19020D   23311.38711811 -.00000022  00000+0  00000+0 0  9990
2 44115   0.0481   2.9407 0002727 223.8141 133.2282  5.00116092 83984
SES-17                  
1 49332U 21095A   23311.28801421 -.00000263  00000+0  00000+0 0  9994
2 49332   0.0127 278.9028 0001057 311.0920 212.8225  1.00266565  8289
SES-22                  
1 52933U 22071A   23311.65710206  .00000097  00000+0  00000+0 0  9995
2 52933   0.0131 275.3281 0001290 330.1030 262.7679  1.00274783  5016
SES-20                  
1 53960U 22123A   23311.52399088 -.00000092  00000+0  00000+0 0  9997
2 53960   0.0388  95.2738 0001160  17.6962  19.0559  1.00270879  3991
SES-21                  
1 53961U 22123B   23311.37228653  .00000078  00000+0  00000+0 0  9993
2 53961   0.0187 356.8750 0000966 225.3826 187.1159  1.00268501  3991
O3B MPOWER F1           
1 54755U 22174A   23312.42065590 -.00000019  00000+0  00000+0 0  9993
2 54755   0.0529  19.0810 0005446 223.3490  40.2972  5.00118440 17730
O3B MPOWER F2           
1 54756U 22174B   23312.37534156 -.00000019  00000+0  00000+0 0  9997
2 54756   0.0552  18.5686 0008161 250.8915  90.4528  5.00113593 17813
SES-18                  
1 55970U 23038A   23311.59200907 -.00000092  00000+0  00000+0 0  9994
2 55970   0.0169 260.1742 0002919 349.6314 266.7733  1.00272254  2567
SES-19                  
1 55971U 23038B   23311.65710206  .00000097  00000+0  00000+0 0  9994
2 55971   0.0054  53.7994 0001657 177.9275 276.5514  1.00272439  2530
O3B MPOWER F4           
1 56367U 23059A   23310.29739157 -.00000024  00000+0  00000+0 0  9993
2 56367   0.0376   8.9755 0006863 228.3816 122.5820  5.00114994 10871
O3B MPOWER F3           
1 56368U 23059B   23311.39697057 -.00000022  00000+0  00000+0 0  9996
2 56368   0.0362   6.3481 0003708 255.9689  97.6468  5.00114754  7065
